"H","diameter","albedo","diameter_sigma","e","a","q","i","om","w","ma","ad","n","tp","tp_cal","per","per_y","moid","moid_ld","sigma_e","sigma_a","sigma_q","sigma_i","sigma_om","sigma_w","sigma_ma","sigma_ad","sigma_n","sigma_tp","sigma_per","rms","class"
15.0607954545455,5.43480113636364,0.0743522727272727,0.515602272727273,0.0550562390235983,3.15880040268269,2.98501603874252,12.6195812657908,252.674534645791,296.702354619234,292.704699202855,3.33258476662287,0.175597765889899,2459383.78548539,20210618.2854854,2050.69672673578,5.61450164746279,1.99805920454545,777.584700632955,6.52501590909091e-08,4.97688579545454e-08,2.05359204545455e-07,7.69859659090909e-06,3.64289602272727e-05,9.53458522727273e-05,8.61105056818182e-05,5.24103863636364e-08,4.13520454545455e-09,0.000493682443181818,4.84987045454545e-05,0.567732159090909,"N"
14.4005555555556,9.49508333333333,0.0514888888888889,0.834188888888889,0.102808992414202,3.43608413227186,3.08394801744844,11.3642407841944,184.809328562417,86.6839520964325,75.5543782401913,3.78822024709529,0.154823758419062,2458512.48522341,20190150.0685568,2326.6998972073,6.37015714498919,2.09726605555556,816.193030840556,5.63740833333333e-08,4.45013166666667e-08,1.94574333333333e-07,6.30319444444444e-06,3.32329444444444e-05,5.47346722222222e-05,3.97073611111111e-05,4.86569388888889e-08,2.98142166666667e-09,0.000258708944444444,4.52780111111111e-05,0.539727111111111,"N"
14.6329365079365,3.90385714285714,0.248845238095238,0.279333333333333,0.19513150685195,2.2575492120852,1.81645860402793,7.46498661859133,66.6159898270841,276.446207489657,212.931715187979,2.69863982014246,0.290703346336284,2459506.37945055,20211018.8794506,1239.0658445667,3.39237739785544,0.830976007936508,323.390933008651,3.93491587301587e-08,9.33735595238095e-09,8.86202658730159e-08,4.86136865079365e-06,4.20822253968254e-05,4.48802698412698e-05,1.52226015873016e-05,1.12031154761905e-08,1.78727904761905e-09,5.38230317460317e-05,7.70118531746032e-06,0.516844007936508,"N"
14.95,4.67736666666667,0.1392,0.6582,0.0636014102729009,2.79731632533686,2.61947455456055,6.17769732774403,202.178362283983,310.033689108422,215.606349138838,2.97515809611317,0.210708142024141,2459685.70662665,20220416.2066266,1708.94767699481,4.67884374262781,1.63028816666667,634.459245821667,4.54169333333333e-08,2.01338666666667e-08,1.27029933333333e-07,4.63207833333333e-06,7.527995e-05,9.17150666666667e-05,5.06131166666667e-05,2.137525e-08,2.28023166666667e-09,0.00024285925,1.844135e-05,0.550303833333333,"N"
15.2405555555556,4.00328333333333,0.151472222222222,0.237244444444444,0.187187808643821,2.70810900718351,2.20006711039177,10.537435514537,297.938562756846,52.1839465675301,43.6576523895884,3.21615090397524,0.221325848582399,2458803.27793471,20191115.7779347,1628.03518128596,4.45731740256252,1.21004294444444,470.912412689444,6.04984944444444e-08,1.98133861111111e-08,1.67363111111111e-07,6.39719888888889e-06,3.91472888888889e-05,4.49433222222222e-05,1.72677233333333e-05,2.34794222222222e-08,2.41696722222222e-09,7.76819777777775e-05,1.78849916666667e-05,0.525676277777778,"N"
14.6472222222222,8.00579166666667,0.0647777777777778,0.506305555555556,0.0842628543320293,3.20647782027568,2.93621360137631,13.6740647916533,241.66678685555,123.407008622967,273.913161556107,3.47674203917505,0.171683572299533,2459501.94807416,20211014.4480742,2097.26921536739,5.74201017212153,1.95383513888889,760.374021001389,8.9442375e-08,5.68144861111111e-08,2.74508611111111e-07,7.94839861111111e-06,3.74841666666667e-05,7.7442875e-05,5.79820694444444e-05,6.23195138888889e-08,4.57489444444444e-09,0.000338646666666667,5.57111527777778e-05,0.554723333333333,"N"
14.7083333333333,7.60325,0.0605,1.22208333333333,0.10556789786686,3.41478600954726,3.05401525428813,8.66120308491693,260.638889699801,100.896618820386,85.9002568199017,3.77555676480638,0.15622458397538,2458450.64939956,20181154.5243996,2304.95275174379,6.31061670566405,2.06101875,802.0866669375,7.42184166666667e-08,4.10886666666667e-08,2.58824583333333e-07,6.4994e-06,5.34629583333333e-05,6.50232916666667e-05,3.168725e-05,4.53789166666667e-08,2.82260833333333e-09,0.000201957458333332,4.15933333333333e-05,0.5429425,"N"
14.7683333333333,6.14865,0.0928833333333333,0.533233333333333,0.283755860414956,2.82144222921344,2.01995273671053,12.7124002717057,52.1631065861881,310.557969244183,110.83035895487,3.62293172171635,0.208190133164923,2458468.04477258,20181208.5447726,1731.40176376404,4.74031968176328,1.04234325,405.6487226025,6.159305e-08,2.35494166666667e-08,1.73132666666667e-07,6.97227e-06,3.02915833333333e-05,3.37061833333333e-05,1.39286166666667e-05,3.02653e-08,2.580715e-09,6.55408166666667e-05,2.17198e-05,0.506641,"N"
14.3688888888889,9.9371230994152,0.0785809941520468,0.57393216374269,0.0985202535717162,3.16948883981225,2.85720680201378,13.2698005436002,79.5758655320322,292.242300485096,34.3561869530139,3.48177087761072,0.174706348094348,2458803.86784685,20191116.3678469,2061.10449269874,5.64299655769675,1.88196094152047,732.40273961152,6.20625885964912e-08,3.92544248538012e-08,2.06701915204678e-07,6.59767643274854e-06,3.66268676900585e-05,6.10931704678363e-05,4.19872950292398e-05,4.32664546783626e-08,3.25276687134503e-09,0.000239180774853801,3.82732333333333e-05,0.559384643274854,"N"
14.8356303418803,6.07087927350427,0.0850267094017094,0.458980769230769,0.0728320368169015,3.09483962094511,2.86836134279979,11.0577624260521,213.348854944072,271.680418187827,8.06845817572392,3.32131789909044,0.181096905706379,2458955.99904545,20200416.4990454,1988.78923599966,5.44500817522151,1.89224206196581,736.403843255235,6.3055516025641e-08,4.35237254273504e-08,2.12372692307692e-07,6.47986426282051e-06,0.000213621705662393,0.000259158047008547,6.84834487179487e-05,4.6201343482906e-08,3.86772713675214e-09,0.000374125849358974,4.18512852564103e-05,0.555176971153846,"N"
14.7357142857143,6.44424725274725,0.0725494505494506,0.491840659340659,0.0438406567160179,3.15402456217243,3.01533145915781,11.9567078676091,234.315567954075,290.1547390584,346.684638026898,3.29271766518706,0.176032863250349,2459076.09274473,20200809.2850524,2046.13192344262,5.60200389717349,2.03364928571429,791.435292521429,5.21347527472527e-08,3.54737417582418e-08,1.72360879120879e-07,6.26793351648352e-06,3.15705054945055e-05,0.00011329482967033,0.000105088796703297,3.69780714285714e-08,2.98261263736264e-09,0.000593253791208791,3.44897032967033e-05,0.540547197802198,"N"
14.6229437229437,12.8797705627706,0.07804329004329,0.590077922077922,0.0882107315526047,3.14447368968598,2.86623764397151,12.237451677614,318.434290500166,71.1081650936853,216.969623286441,3.42270973540045,0.176812113581352,2459809.4115163,20220817.9115163,2036.7906642716,5.57642892339931,1.89183523809524,736.245519609524,7.31567748917749e-08,4.81331601731602e-08,2.30538181818182e-07,8.84630216450216e-06,3.45694588744589e-05,8.50228051948052e-05,7.32117359307359e-05,5.22567359307359e-08,4.06550649350649e-09,0.000416651203463203,4.67533463203463e-05,0.563592207792208,"N"
12.7384615384615,19.7481538461538,0.0672307692307692,0.941076923076923,0.103459113030171,5.21243946846218,4.67308268183018,15.4316604340838,323.802335974347,310.595747815506,320.912388176477,5.75179625509418,0.0828258142731649,2459472.46221971,20210915.3468351,4346.74965795376,11.9007519724949,3.67812384615385,1431.41545720769,9.84866153846154e-08,2.67976461538462e-07,6.91420769230769e-07,1.17484153846154e-05,3.90715384615385e-05,0.000104531153846153,9.63338461538462e-05,2.96094076923077e-07,6.38927692307692e-09,0.00117078769230769,0.000335182153846154,0.566967692307692,"N"
15.3007575757576,5.17445833333333,0.0777424242424242,0.301734848484848,0.136376973538404,3.17262802059141,2.73974277206488,14.9781702998236,148.72808685857,46.7902855108857,309.367701161047,3.60551326911795,0.174447308294761,2459290.72288596,20210317.222886,2064.16722437881,5.65138186003781,1.77251386363636,689.809220311364,1.04744022727273e-07,7.54017121212121e-08,3.43029090909091e-07,9.23830303030303e-06,4.68375681818179e-05,8.35131515151515e-05,5.5515428030303e-05,8.65675492424242e-08,6.24132310606061e-09,0.000325926924242424,7.35338409090909e-05,0.574034621212121,"N"
15.33,4.6849625,0.0727375,0.7792375,0.0593456915486977,3.08952966967243,2.90616500423274,11.593123364555,30.7286227226678,220.569153600712,230.188632463982,3.27289433511212,0.181527334374869,2459715.57224368,20220516.0722437,1983.59172476429,5.43077816499463,1.91106025,743.7273174925,6.84822125e-08,4.49740125e-08,2.1429675e-07,8.449225e-06,4.90179375e-05,0.0001315022625,0.000111540625,4.75133875e-08,3.9539475e-09,0.00061528175,4.33340125e-05,0.617879375,"N"
14.7204166666667,5.51482986111111,0.187597916666667,0.511772222222222,0.0988976000620729,2.61364791543035,2.35551357371056,12.9702324601363,182.079287439202,206.622566938116,46.3632647489839,2.87178225715013,0.233372470079544,2458801.84682755,20191114.3468276,1543.51985749856,4.22592705680645,1.37699719444444,535.885998161944,4.92004006944444e-08,1.60963500694444e-08,1.30929429166667e-07,5.332324375e-06,3.01592138888889e-05,4.62821972222222e-05,3.05870611111111e-05,1.76953394444444e-08,2.15834201388889e-09,0.000131183472916666,1.42555431944444e-05,0.519490368055556,"N"
14.4375,9.906625,0.111175,0.893,0.129056672237645,2.77460540334674,2.41647398588334,9.18963434680984,192.043337858305,34.3766164188283,233.015026903979,3.13273682081015,0.213276575775615,2459595.93270286,20220116.4327029,1688.13982594474,4.62187495125185,1.41614375,551.1206631875,4.4978875e-08,2.30536875e-08,1.251885e-07,5.365375e-06,3.6848375e-05,4.486775e-05,2.621525e-05,2.6138875e-08,2.65745e-09,0.000127147625,2.10408375e-05,0.5442325,"N"
